{
  "type": "FeatureCollection",
  "features": [
    {
      "type": "Feature",
      "properties": {
        "norad_id": 31619,
        "name": "FENGYUN 1C DEB",
        "group": "fengyun-1c-debris",
        "lat": -23.19885655191531,
        "lon": 9.686154344970575,
        "alt_km": 573.9775197107438,
        "timestamp": "2025-12-25T07:00:34.331617+00:00",
        "meta_object_name": "FENGYUN 1C DEB",
        "meta_object_id": "1999-025BZZ",
        "meta_epoch": "2025-12-23T18:32:51.274752",
        "meta_mean_motion": 14.86406694,
        "meta_eccentricity": 0.00934013,
        "meta_inclination": 99.0722,
        "meta_ra_of_asc_node": 191.8806,
        "meta_arg_of_pericenter": 260.5478,
        "meta_mean_anomaly": 98.5166,
        "meta_ephemeris_type": 0,
        "meta_classification_type": "U",
        "meta_norad_cat_id": 31619,
        "meta_element_set_no": 999,
        "meta_rev_at_epoch": 63652,
        "meta_bstar": 0.0049559885,
        "meta_mean_motion_dot": 0.00047576,
        "meta_mean_motion_ddot": 0,
        "tle_line1": "1 31619U 99025BZZ 25357.77281568  .00047576  00000+0  49560-2 0  9995",
        "tle_line2": "2 31619  99.0722 191.8806 0093401 260.5478  98.5166 14.86406694636528"
      },
      "geometry": {
        "type": "Point",
        "coordinates": [
          9.686154344970575,
          -23.19885655191531
        ]
      }
    },
    {
      "type": "Feature",
      "properties": {
        "norad_id": 31620,
        "name": "FENGYUN 1C DEB",
        "group": "fengyun-1c-debris",
        "lat": 33.13658768676448,
        "lon": -90.34881998501868,
        "alt_km": 776.1763403715222,
        "timestamp": "2025-12-25T07:00:34.331640+00:00",
        "meta_object_name": "FENGYUN 1C DEB",
        "meta_object_id": "1999-025CAA",
        "meta_epoch": "2025-12-24T11:57:16.474176",
        "meta_mean_motion": 14.3737324,
        "meta_eccentricity": 0.0019475,
        "meta_inclination": 98.8868,
        "meta_ra_of_asc_node": 82.9689,
        "meta_arg_of_pericenter": 5.6991,
        "meta_mean_anomaly": 354.4413,
        "meta_ephemeris_type": 0,
        "meta_classification_type": "U",
        "meta_norad_cat_id": 31620,
        "meta_element_set_no": 999,
        "meta_rev_at_epoch": 66013,
        "meta_bstar": 0.0023608058,
        "meta_mean_motion_dot": 7.026e-05,
        "meta_mean_motion_ddot": 0,
        "tle_line1": "1 31620U 99025CAA 25358.49810734  .00007026  00000+0  23608-2 0  9991",
        "tle_line2": "2 31620  98.8868  82.9689 0019475   5.6991 354.4413 14.37373240660133"
      },
      "geometry": {
        "type": "Point",
        "coordinates": [
          -90.34881998501868,
          33.13658768676448
        ]
      }
    },
    {
      "type": "Feature",
      "properties": {
        "norad_id": 31622,
        "name": "FENGYUN 1C DEB",
        "group": "fengyun-1c-debris",
        "lat": 50.87100904967598,
        "lon": -74.62907468053811,
        "alt_km": 773.6978505842571,
        "timestamp": "2025-12-25T07:00:34.331661+00:00",
        "meta_object_name": "FENGYUN 1C DEB",
        "meta_object_id": "1999-025CAC",
        "meta_epoch": "2025-12-24T05:29:24.828576",
        "meta_mean_motion": 14.37296522,
        "meta_eccentricity": 0.00154964,
        "meta_inclination": 98.8155,
        "meta_ra_of_asc_node": 93.2846,
        "meta_arg_of_pericenter": 305.3244,
        "meta_mean_anomaly": 84.2007,
        "meta_ephemeris_type": 0,
        "meta_classification_type": "U",
        "meta_norad_cat_id": 31622,
        "meta_element_set_no": 999,
        "meta_rev_at_epoch": 95937,
        "meta_bstar": 0.0019273331,
        "meta_mean_motion_dot": 5.713e-05,
        "meta_mean_motion_ddot": 0,
        "tle_line1": "1 31622U 99025CAC 25358.22875959  .00005713  00000+0  19273-2 0  9998",
        "tle_line2": "2 31622  98.8155  93.2846 0015496 305.3244  84.2007 14.37296522959375"
      },
      "geometry": {
        "type": "Point",
        "coordinates": [
          -74.62907468053811,
          50.87100904967598
        ]
      }
    },
    {
      "type": "Feature",
      "properties": {
        "norad_id": 31623,
        "name": "FENGYUN 1C DEB",
        "group": "fengyun-1c-debris",
        "lat": 62.34424183973728,
        "lon": 43.32711917081821,
        "alt_km": 1064.859514563128,
        "timestamp": "2025-12-25T07:00:34.331682+00:00",
        "meta_object_name": "FENGYUN 1C DEB",
        "meta_object_id": "1999-025CAD",
        "meta_epoch": "2025-12-22T19:23:51.435744",
        "meta_mean_motion": 13.82604829,
        "meta_eccentricity": 0.01941743,
        "meta_inclination": 97.6285,
        "meta_ra_of_asc_node": 206.4945,
        "meta_arg_of_pericenter": 338.158,
        "meta_mean_anomaly": 21.1382,
        "meta_ephemeris_type": 0,
        "meta_classification_type": "U",
        "meta_norad_cat_id": 31623,
        "meta_element_set_no": 999,
        "meta_rev_at_epoch": 58059,
        "meta_bstar": 0.00035445246,
        "meta_mean_motion_dot": 4.12e-06,
        "meta_mean_motion_ddot": 0,
        "tle_line1": "1 31623U 99025CAD 25356.80823421  .00000412  00000+0  35445-3 0  9999",
        "tle_line2": "2 31623  97.6285 206.4945 0194174 338.1580  21.1382 13.82604829580595"
      },
      "geometry": {
        "type": "Point",
        "coordinates": [
          43.32711917081821,
          62.34424183973728
        ]
      }
    },
    {
      "type": "Feature",
      "properties": {
        "norad_id": 31625,
        "name": "FENGYUN 1C DEB",
        "group": "fengyun-1c-debris",
        "lat": -26.609367504870164,
        "lon": -98.4560118462079,
        "alt_km": 781.4788256709116,
        "timestamp": "2025-12-25T07:00:34.331704+00:00",
        "meta_object_name": "FENGYUN 1C DEB",
        "meta_object_id": "1999-025CAF",
        "meta_epoch": "2025-12-24T11:57:57.852864",
        "meta_mean_motion": 14.55415937,
        "meta_eccentricity": 0.01485736,
        "meta_inclination": 98.8051,
        "meta_ra_of_asc_node": 85.1612,
        "meta_arg_of_pericenter": 339.9695,
        "meta_mean_anomaly": 33.1607,
        "meta_ephemeris_type": 0,
        "meta_classification_type": "U",
        "meta_norad_cat_id": 31625,
        "meta_element_set_no": 999,
        "meta_rev_at_epoch": 98564,
        "meta_bstar": 0.0001499597,
        "meta_mean_motion_dot": 6.95e-06,
        "meta_mean_motion_ddot": 0,
        "tle_line1": "1 31625U 99025CAF 25358.49858626  .00000695  00000+0  14996-3 0  9994",
        "tle_line2": "2 31625  98.8051  85.1612 0148573 339.9695  33.1607 14.55415937985641"
      },
      "geometry": {
        "type": "Point",
        "coordinates": [
          -98.4560118462079,
          -26.609367504870164
        ]
      }
    },
    {
      "type": "Feature",
      "properties": {
        "norad_id": 31627,
        "name": "FENGYUN 1C DEB",
        "group": "fengyun-1c-debris",
        "lat": -80.6990224834988,
        "lon": 160.5996598077032,
        "alt_km": 812.1911828045422,
        "timestamp": "2025-12-25T07:00:34.331727+00:00",
        "meta_object_name": "FENGYUN 1C DEB",
        "meta_object_id": "1999-025CAH",
        "meta_epoch": "2025-11-26T09:13:22.975680",
        "meta_mean_motion": 14.35408996,
        "meta_eccentricity": 0.00515931,
        "meta_inclination": 98.5313,
        "meta_ra_of_asc_node": 18.4415,
        "meta_arg_of_pericenter": 201.9005,
        "meta_mean_anomaly": 157.9975,
        "meta_ephemeris_type": 0,
        "meta_classification_type": "U",
        "meta_norad_cat_id": 31627,
        "meta_element_set_no": 999,
        "meta_rev_at_epoch": 64532,
        "meta_bstar": 0.0013473839,
        "meta_mean_motion_dot": 3.885e-05,
        "meta_mean_motion_ddot": 0,
        "tle_line1": "1 31627U 99025CAH 25330.38429370  .00003885  00000+0  13474-2 0  9997",
        "tle_line2": "2 31627  98.5313  18.4415 0051593 201.9005 157.9975 14.35408996645325"
      },
      "geometry": {
        "type": "Point",
        "coordinates": [
          160.5996598077032,
          -80.6990224834988
        ]
      }
    },
    {
      "type": "Feature",
      "properties": {
        "norad_id": 31628,
        "name": "FENGYUN 1C DEB",
        "group": "fengyun-1c-debris",
        "lat": -15.06789320785975,
        "lon": 34.639836068355145,
        "alt_km": 821.9257696038048,
        "timestamp": "2025-12-25T07:00:34.331750+00:00",
        "meta_object_name": "FENGYUN 1C DEB",
        "meta_object_id": "1999-025CAJ",
        "meta_epoch": "2025-12-24T21:24:47.634336",
        "meta_mean_motion": 13.86888051,
        "meta_eccentricity": 0.01675044,
        "meta_inclination": 102.2708,
        "meta_ra_of_asc_node": 217.4758,
        "meta_arg_of_pericenter": 191.0461,
        "meta_mean_anomaly": 168.6987,
        "meta_ephemeris_type": 0,
        "meta_classification_type": "U",
        "meta_norad_cat_id": 31628,
        "meta_element_set_no": 999,
        "meta_rev_at_epoch": 93468,
        "meta_bstar": 0.0019416451,
        "meta_mean_motion_dot": 2.466e-05,
        "meta_mean_motion_ddot": 0,
        "tle_line1": "1 31628U 99025CAJ 25358.89221799  .00002466  00000+0  19416-2 0  9995",
        "tle_line2": "2 31628 102.2708 217.4758 0167504 191.0461 168.6987 13.86888051934684"
      },
      "geometry": {
        "type": "Point",
        "coordinates": [
          34.639836068355145,
          -15.06789320785975
        ]
      }
    }
  ]
}